{
  "type": "FeatureCollection",
  "features": [
    {
      "type": "Feature",
      "properties": {
        "norad_id": 24876,
        "name": "GPS BIIR-2  (PRN 13)",
        "group": "gps-ops",
        "lat": 21.984532619855138,
        "lon": 121.34691035031966,
        "alt_km": 19956.442459813046,
        "timestamp": "2025-12-22T05:49:03.757957+00:00",
        "meta_object_name": "GPS BIIR-2  (PRN 13)",
        "meta_object_id": "1997-035A",
        "meta_epoch": "2025-12-21T05:00:18.122112",
        "meta_mean_motion": 2.00563754,
        "meta_eccentricity": 0.00968202,
        "meta_inclination": 55.8993,
        "meta_ra_of_asc_node": 105.5377,
        "meta_arg_of_pericenter": 56.9664,
        "meta_mean_anomaly": 303.9402,
        "meta_ephemeris_type": 0,
        "meta_classification_type": "U",
        "meta_norad_cat_id": 24876,
        "meta_element_set_no": 999,
        "meta_rev_at_epoch": 20838,
        "meta_bstar": 0,
        "meta_mean_motion_dot": 2e-08,
        "meta_mean_motion_ddot": 0,
        "tle_line1": "1 24876U 97035A   25355.20854308  .00000002  00000+0  00000+0 0  9991",
        "tle_line2": "2 24876  55.8993 105.5377 0096820  56.9664 303.9402  2.00563754208381"
      },
      "geometry": {
        "type": "Point",
        "coordinates": [
          121.34691035031966,
          21.984532619855138
        ]
      }
    },
    {
      "type": "Feature",
      "properties": {
        "norad_id": 26360,
        "name": "GPS BIIR-4  (PRN 20)",
        "group": "gps-ops",
        "lat": 45.75077817541277,
        "lon": 160.6031426575152,
        "alt_km": 20233.823768539092,
        "timestamp": "2025-12-22T05:49:03.757984+00:00",
        "meta_object_name": "GPS BIIR-4  (PRN 20)",
        "meta_object_id": "2000-025A",
        "meta_epoch": "2025-12-21T19:31:54.663168",
        "meta_mean_motion": 2.00566983,
        "meta_eccentricity": 0.0038902,
        "meta_inclination": 55.0506,
        "meta_ra_of_asc_node": 26.4709,
        "meta_arg_of_pericenter": 242.8487,
        "meta_mean_anomaly": 287.1572,
        "meta_ephemeris_type": 0,
        "meta_classification_type": "U",
        "meta_norad_cat_id": 26360,
        "meta_element_set_no": 999,
        "meta_rev_at_epoch": 18771,
        "meta_bstar": 0,
        "meta_mean_motion_dot": -6e-07,
        "meta_mean_motion_ddot": 0,
        "tle_line1": "1 26360U 00025A   25355.81382712 -.00000060  00000+0  00000+0 0  9991",
        "tle_line2": "2 26360  55.0506  26.4709 0038902 242.8487 287.1572  2.00566983187710"
      },
      "geometry": {
        "type": "Point",
        "coordinates": [
          160.6031426575152,
          45.75077817541277
        ]
      }
    },
    {
      "type": "Feature",
      "properties": {
        "norad_id": 26407,
        "name": "GPS BIIR-5  (PRN 22)",
        "group": "gps-ops",
        "lat": -32.10496924168723,
        "lon": -163.98300279789805,
        "alt_km": 19867.997993040335,
        "timestamp": "2025-12-22T05:49:03.758001+00:00",
        "meta_object_name": "GPS BIIR-5  (PRN 22)",
        "meta_object_id": "2000-040A",
        "meta_epoch": "2025-12-21T19:27:10.878048",
        "meta_mean_motion": 2.00568103,
        "meta_eccentricity": 0.0125514,
        "meta_inclination": 54.8888,
        "meta_ra_of_asc_node": 222.2083,
        "meta_arg_of_pericenter": 301.962,
        "meta_mean_anomaly": 65.3389,
        "meta_ephemeris_type": 0,
        "meta_classification_type": "U",
        "meta_norad_cat_id": 26407,
        "meta_element_set_no": 999,
        "meta_rev_at_epoch": 18639,
        "meta_bstar": 0,
        "meta_mean_motion_dot": 6.9e-07,
        "meta_mean_motion_ddot": 0,
        "tle_line1": "1 26407U 00040A   25355.81054257  .00000069  00000+0  00000+0 0  9998",
        "tle_line2": "2 26407  54.8888 222.2083 0125514 301.9620  65.3389  2.00568103186396"
      },
      "geometry": {
        "type": "Point",
        "coordinates": [
          -163.98300279789805,
          -32.10496924168723
        ]
      }
    },
    {
      "type": "Feature",
      "properties": {
        "norad_id": 27663,
        "name": "GPS BIIR-8  (PRN 16)",
        "group": "gps-ops",
        "lat": 54.4333677927254,
        "lon": -37.25534500187978,
        "alt_km": 19891.184399080725,
        "timestamp": "2025-12-22T05:49:03.758015+00:00",
        "meta_object_name": "GPS BIIR-8  (PRN 16)",
        "meta_object_id": "2003-005A",
        "meta_epoch": "2025-12-20T15:07:28.763328",
        "meta_mean_motion": 2.00570507,
        "meta_eccentricity": 0.0147742,
        "meta_inclination": 54.9216,
        "meta_ra_of_asc_node": 222.0644,
        "meta_arg_of_pericenter": 51.9121,
        "meta_mean_anomaly": 319.0535,
        "meta_ephemeris_type": 0,
        "meta_classification_type": "U",
        "meta_norad_cat_id": 27663,
        "meta_element_set_no": 999,
        "meta_rev_at_epoch": 16773,
        "meta_bstar": 0,
        "meta_mean_motion_dot": 7.3e-07,
        "meta_mean_motion_ddot": 0,
        "tle_line1": "1 27663U 03005A   25354.63019402  .00000073  00000+0  00000+0 0  9994",
        "tle_line2": "2 27663  54.9216 222.0644 0147742  51.9121 319.0535  2.00570507167733"
      },
      "geometry": {
        "type": "Point",
        "coordinates": [
          -37.25534500187978,
          54.4333677927254
        ]
      }
    },
    {
      "type": "Feature",
      "properties": {
        "norad_id": 28190,
        "name": "GPS BIIR-11 (PRN 19)",
        "group": "gps-ops",
        "lat": -52.203938253882704,
        "lon": 167.3589664318708,
        "alt_km": 20169.52521132038,
        "timestamp": "2025-12-22T05:49:03.758028+00:00",
        "meta_object_name": "GPS BIIR-11 (PRN 19)",
        "meta_object_id": "2004-009A",
        "meta_epoch": "2025-12-20T02:10:39.105696",
        "meta_mean_motion": 2.00560582,
        "meta_eccentricity": 0.01084506,
        "meta_inclination": 54.979,
        "meta_ra_of_asc_node": 282.9228,
        "meta_arg_of_pericenter": 167.7566,
        "meta_mean_anomaly": 332.1268,
        "meta_ephemeris_type": 0,
        "meta_classification_type": "U",
        "meta_norad_cat_id": 28190,
        "meta_element_set_no": 999,
        "meta_rev_at_epoch": 15935,
        "meta_bstar": 0,
        "meta_mean_motion_dot": -3.4e-07,
        "meta_mean_motion_ddot": 0,
        "tle_line1": "1 28190U 04009A   25354.09073039 -.00000034  00000+0  00000+0 0  9999",
        "tle_line2": "2 28190  54.9790 282.9228 0108450 167.7566 332.1268  2.00560582159351"
      },
      "geometry": {
        "type": "Point",
        "coordinates": [
          167.3589664318708,
          -52.203938253882704
        ]
      }
    },
    {
      "type": "Feature",
      "properties": {
        "norad_id": 28474,
        "name": "GPS BIIR-13 (PRN 02)",
        "group": "gps-ops",
        "lat": -36.20016518689667,
        "lon": -58.53330119912867,
        "alt_km": 19732.527797142324,
        "timestamp": "2025-12-22T05:49:03.758041+00:00",
        "meta_object_name": "GPS BIIR-13 (PRN 02)",
        "meta_object_id": "2004-045A",
        "meta_epoch": "2025-12-21T13:21:16.085088",
        "meta_mean_motion": 2.00569985,
        "meta_eccentricity": 0.0170919,
        "meta_inclination": 55.2363,
        "meta_ra_of_asc_node": 332.0513,
        "meta_arg_of_pericenter": 309.6441,
        "meta_mean_anomaly": 228.908,
        "meta_ephemeris_type": 0,
        "meta_classification_type": "U",
        "meta_norad_cat_id": 28474,
        "meta_element_set_no": 999,
        "meta_rev_at_epoch": 15486,
        "meta_bstar": 0,
        "meta_mean_motion_dot": -7.1e-07,
        "meta_mean_motion_ddot": 0,
        "tle_line1": "1 28474U 04045A   25355.55643617 -.00000071  00000+0  00000+0 0  9992",
        "tle_line2": "2 28474  55.2363 332.0513 0170919 309.6441 228.9080  2.00569985154869"
      },
      "geometry": {
        "type": "Point",
        "coordinates": [
          -58.53330119912867,
          -36.20016518689667
        ]
      }
    },
    {
      "type": "Feature",
      "properties": {
        "norad_id": 28874,
        "name": "GPS BIIRM-1 (PRN 17)",
        "group": "gps-ops",
        "lat": -54.967497209826384,
        "lon": -165.3097291770907,
        "alt_km": 19861.33747755842,
        "timestamp": "2025-12-22T05:49:03.758053+00:00",
        "meta_object_name": "GPS BIIRM-1 (PRN 17)",
        "meta_object_id": "2005-038A",
        "meta_epoch": "2025-12-21T00:50:49.977024",
        "meta_mean_motion": 2.00577927,
        "meta_eccentricity": 0.01313807,
        "meta_inclination": 55.0245,
        "meta_ra_of_asc_node": 280.367,
        "meta_arg_of_pericenter": 293.7438,
        "meta_mean_anomaly": 187.6731,
        "meta_ephemeris_type": 0,
        "meta_classification_type": "U",
        "meta_norad_cat_id": 28874,
        "meta_element_set_no": 999,
        "meta_rev_at_epoch": 14826,
        "meta_bstar": 0,
        "meta_mean_motion_dot": -2.4e-07,
        "meta_mean_motion_ddot": 0,
        "tle_line1": "1 28874U 05038A   25355.03530066 -.00000024  00000+0  00000+0 0  9993",
        "tle_line2": "2 28874  55.0245 280.3670 0131380 293.7438 187.6731  2.00577927148263"
      },
      "geometry": {
        "type": "Point",
        "coordinates": [
          -165.3097291770907,
          -54.967497209826384
        ]
      }
    }
  ]
}